{
  "norad_id": 31797,
  "name": "SAR-LUPE 2",
  "history": [
    {
      "epoch": "2026-04-16T19:34:09.440256Z",
      "apogee_km": 441.8266217825294,
      "perigee_km": 428.53792387280646,
      "latitude_deg": -9.09874264089957e-05,
      "longitude_deg": 65.53469777745781,
      "height_km": 431.9972318478716,
      "semi_major_axis_km": 6813.319272827667,
      "eccentricity": 0.0009752,
      "inclination_deg": 98.0996,
      "raan_deg": 204.0317,
      "arg_perigee_deg": 341.1788,
      "mean_anomaly_deg": 18.9095,
      "mean_motion_rev_day": 15.4370621
    }
  ]
}