SAR-LUPE 2
1 31797U 07030A   26106.81538704  .00011239  00000+0  25083-3 0  9994
2 31797  98.0996 204.0317 0009752 341.1788  18.9095 15.43706210 47453
